{
    "links": {
        "self": "http://www.neowsapp.com/rest/v1/neo/3788011?api_key=iIulBulltgU6a56xZRHN4H3l9WmuAYTsLGpBGhQ2"
    },
    "id": "3788011",
    "neo_reference_id": "3788011",
    "name": "(2017 UU4)",
    "designation": "2017 UU4",
    "nasa_jpl_url": "http://ssd.jpl.nasa.gov/sbdb.cgi?sstr=3788011",
    "absolute_magnitude_h": 23.2,
    "estimated_diameter": {
        "kilometers": {
            "estimated_diameter_min": 0.0608912622,
            "estimated_diameter_max": 0.1361570015
        },
        "meters": {
            "estimated_diameter_min": 60.8912622106,
            "estimated_diameter_max": 136.1570015386
        },
        "miles": {
            "estimated_diameter_min": 0.0378360645,
            "estimated_diameter_max": 0.0846040122
        },
        "feet": {
            "estimated_diameter_min": 199.7744887109,
            "estimated_diameter_max": 446.7093369279
        }
    },
    "is_potentially_hazardous_asteroid": false,
    "close_approach_data": [
        {
            "close_approach_date": "2017-09-20",
            "close_approach_date_full": "2017-Sep-20 19:46",
            "epoch_date_close_approach": 1505936760000,
            "relative_velocity": {
                "kilometers_per_second": "10.2830893399",
                "kilometers_per_hour": "37019.1216237962",
                "miles_per_hour": "23002.2425445194"
            },
            "miss_distance": {
                "astronomical": "0.2074715858",
                "lunar": "80.7064468762",
                "kilometers": "31037307.321202246",
                "miles": "19285688.4801371548"
            },
            "orbiting_body": "Earth"
        }
    ],
    "orbital_data": {
        "orbit_id": "1",
        "orbit_determination_date": "2017-10-26 11:12:06",
        "first_observation_date": "2017-10-19",
        "last_observation_date": "2017-10-26",
        "data_arc_in_days": 7,
        "observations_used": 15,
        "orbit_uncertainty": "9",
        "minimum_orbit_intersection": ".179246",
        "jupiter_tisserand_invariant": "3.190",
        "epoch_osculation": "2458048.5",
        "eccentricity": ".5704846527544063",
        "semi_major_axis": "2.474498258031292",
        "inclination": "16.35735713637561",
        "ascending_node_longitude": "27.27648883609125",
        "orbital_period": "1421.769375763941",
        "perihelion_distance": "1.062834978556927",
        "perihelion_argument": "301.9122895747465",
        "aphelion_distance": "3.886161537505657",
        "perihelion_time": "2457986.375786924300",
        "mean_anomaly": "15.7302000510702",
        "mean_motion": ".2532056226113084",
        "equinox": "J2000",
        "orbit_class": {
            "orbit_class_type": "AMO",
            "orbit_class_description": "Near-Earth asteroid orbits similar to that of 1221 Amor",
            "orbit_class_range": "1.017 AU < q (perihelion) < 1.3 AU"
        }
    },
    "is_sentry_object": false
}